FALCON 9 DEB            
1 55680U 23021BE  23059.28197740  .04710326  42002-5  10230-2 0  9993
2 55680  69.9800 119.7935 0025296 147.7206 212.5575 16.29288890  2017
FALCON 9 DEB            
1 55681U 23021BF  23059.26799721  .08561958  42882-5  73427-3 0  9992
2 55681  69.9783 119.7449 0017538 139.8399 220.4131 16.38569159  2019
FALCON 9 DEB            
1 55682U 23021BG  23059.27099812  .06333408  42353-5  82350-3 0  9991
2 55682  69.9781 119.7549 0022356 145.9935 214.2731 16.34550119  2016
INMARSAT 6-F2           
1 55683U 23022A   23058.54248786  .00000148  00000+0  72932-3 0  9996
2 55683  26.9498  49.6764 7526184 169.9263 341.5703  1.91639694   137
FALCON 9 R/B            
1 55684U 23022B   23057.83326218  .00008551  00000+0  15593-2 0  9990
2 55684  27.0274  49.7527 7584690 169.7921 227.1476  1.92368465   148
DRUMS TARGET-1          
1 55685U 21102M   23058.95146204  .00017296  00000+0  12264-2 0  9995
2 55685  97.5005 115.6080 0021095  75.5575 284.8022 15.04653045  1458
CHINASAT 26 (ZX 26)     
1 55686U 23023A   23054.65327030 -.00090925  00000+0 -14966-1 0  9993
2 55686  27.8958 327.5208 7292351 179.4456 119.0028  2.27947088    01
CZ-3B R/B               
1 55687U 23023B   23055.75585878  .00001253 -87120-7  10000-3 0  9990
2 55687  27.9224 326.9655 7225668 179.5385 348.6987  2.37970374    39
SOYUZ-MS 23             
1 55688U 23024A   23058.52728191  .00017481  00000+0  32015-3 0  9990
2 55688  51.6389 151.7134 0005680  34.1943  85.4500 15.49398246384784
2023-025A               
1 55690U 23025A   23059.50475417  .00014185  00000+0  59714-3 0  9996
2 55690  97.4720 133.3985 0010912 232.9949 257.1372 15.23425569   648
2023-025B               
1 55691U 23025B   23059.43142812 -.00000078  00000+0  00000+0 0  9996
2 55691  97.5981 133.5085 0065553 268.2092  91.1704 15.17516898   637
2023-025C               
1 55692U 23025C   23059.50648735  .00090817  00000+0  43618-2 0  9994
2 55692  97.6537 133.3948 0093036 213.1927 146.3722 15.14668803   662
2023-025D               
1 55693U 23025D   23059.44205181  .00102168  00000+0  49451-2 0  9996
2 55693  97.2429 133.2165 0095899 212.4822 147.0760 15.14128920   632
2023-025E               
1 55694U 23025E   23059.18855428 -.00000059  00000+0  00000+0 0  9994
2 55694  97.2786 132.8197 0165475 154.0508 234.7045 14.86794366   607
